{
  "type": "FeatureCollection",
  "features": [
    {
      "type": "Feature",
      "properties": {
        "norad_id": 66828,
        "name": "STARLINK-35982",
        "group": "last-30-days",
        "lat": 45.04197760814148,
        "lon": -178.8708015787448,
        "alt_km": 406.24457319465364,
        "timestamp": "2025-12-26T20:30:44.700917+00:00",
        "meta_object_name": "STARLINK-35982",
        "meta_object_id": "2025-280H",
        "meta_epoch": "2025-12-26T14:07:03.644832",
        "meta_mean_motion": 15.52565682,
        "meta_eccentricity": 0.00034954,
        "meta_inclination": 70.0004,
        "meta_ra_of_asc_node": 160.4661,
        "meta_arg_of_pericenter": 276.4486,
        "meta_mean_anomaly": 83.6303,
        "meta_ephemeris_type": 0,
        "meta_classification_type": "U",
        "meta_norad_cat_id": 66828,
        "meta_element_set_no": 999,
        "meta_rev_at_epoch": 508,
        "meta_bstar": 0.0019277159,
        "meta_mean_motion_dot": 0.00120444,
        "meta_mean_motion_ddot": 0,
        "tle_line1": "1 66828U 25280H   25360.58823663  .00120444  00000+0  19277-2 0  9996",
        "tle_line2": "2 66828  70.0004 160.4661 0003495 276.4486  83.6303 15.52565682  5086"
      },
      "geometry": {
        "type": "Point",
        "coordinates": [
          -178.8708015787448,
          45.04197760814148
        ]
      }
    },
    {
      "type": "Feature",
      "properties": {
        "norad_id": 66829,
        "name": "STARLINK-36084",
        "group": "last-30-days",
        "lat": 43.25202290963789,
        "lon": 179.77676445416074,
        "alt_km": 406.6066587397099,
        "timestamp": "2025-12-26T20:30:44.700928+00:00",
        "meta_object_name": "STARLINK-36084",
        "meta_object_id": "2025-280J",
        "meta_epoch": "2025-12-26T14:07:34.003200",
        "meta_mean_motion": 15.52503738,
        "meta_eccentricity": 0.0002915,
        "meta_inclination": 70.0005,
        "meta_ra_of_asc_node": 160.4669,
        "meta_arg_of_pericenter": 269.4363,
        "meta_mean_anomaly": 90.649,
        "meta_ephemeris_type": 0,
        "meta_classification_type": "U",
        "meta_norad_cat_id": 66829,
        "meta_element_set_no": 999,
        "meta_rev_at_epoch": 508,
        "meta_bstar": 0.0012728633,
        "meta_mean_motion_dot": 0.00078875,
        "meta_mean_motion_ddot": 0,
        "tle_line1": "1 66829U 25280J   25360.58858800  .00078875  00000+0  12729-2 0  9993",
        "tle_line2": "2 66829  70.0005 160.4669 0002915 269.4363  90.6490 15.52503738  5087"
      },
      "geometry": {
        "type": "Point",
        "coordinates": [
          179.77676445416074,
          43.25202290963789
        ]
      }
    },
    {
      "type": "Feature",
      "properties": {
        "norad_id": 66830,
        "name": "STARLINK-35881",
        "group": "last-30-days",
        "lat": 46.70271412240423,
        "lon": -177.52719178029244,
        "alt_km": 406.0826266110744,
        "timestamp": "2025-12-26T20:30:44.700939+00:00",
        "meta_object_name": "STARLINK-35881",
        "meta_object_id": "2025-280K",
        "meta_epoch": "2025-12-26T14:06:34.068384",
        "meta_mean_motion": 15.52559981,
        "meta_eccentricity": 0.00033983,
        "meta_inclination": 70.0006,
        "meta_ra_of_asc_node": 160.4641,
        "meta_arg_of_pericenter": 274.8272,
        "meta_mean_anomaly": 85.2527,
        "meta_ephemeris_type": 0,
        "meta_classification_type": "U",
        "meta_norad_cat_id": 66830,
        "meta_element_set_no": 999,
        "meta_rev_at_epoch": 508,
        "meta_bstar": 0.0018172106,
        "meta_mean_motion_dot": 0.00113405,
        "meta_mean_motion_ddot": 0,
        "tle_line1": "1 66830U 25280K   25360.58789431  .00113405  00000+0  18172-2 0  9995",
        "tle_line2": "2 66830  70.0006 160.4641 0003398 274.8272  85.2527 15.52559981  5087"
      },
      "geometry": {
        "type": "Point",
        "coordinates": [
          -177.52719178029244,
          46.70271412240423
        ]
      }
    },
    {
      "type": "Feature",
      "properties": {
        "norad_id": 66831,
        "name": "STARLINK-35788",
        "group": "last-30-days",
        "lat": 48.33507800182843,
        "lon": -176.1064159260812,
        "alt_km": 406.1095538767795,
        "timestamp": "2025-12-26T20:30:44.700948+00:00",
        "meta_object_name": "STARLINK-35788",
        "meta_object_id": "2025-280L",
        "meta_epoch": "2025-12-26T14:06:04.315680",
        "meta_mean_motion": 15.52546708,
        "meta_eccentricity": 0.00033464,
        "meta_inclination": 70.0003,
        "meta_ra_of_asc_node": 160.464,
        "meta_arg_of_pericenter": 271.012,
        "meta_mean_anomaly": 89.0683,
        "meta_ephemeris_type": 0,
        "meta_classification_type": "U",
        "meta_norad_cat_id": 66831,
        "meta_element_set_no": 999,
        "meta_rev_at_epoch": 508,
        "meta_bstar": 0.00069581336,
        "meta_mean_motion_dot": 0.00042914,
        "meta_mean_motion_ddot": 0,
        "tle_line1": "1 66831U 25280L   25360.58754995  .00042914  00000+0  69581-3 0  9990",
        "tle_line2": "2 66831  70.0003 160.4640 0003346 271.0120  89.0683 15.52546708  5086"
      },
      "geometry": {
        "type": "Point",
        "coordinates": [
          -176.1064159260812,
          48.33507800182843
        ]
      }
    },
    {
      "type": "Feature",
      "properties": {
        "norad_id": 66832,
        "name": "STARLINK-35768",
        "group": "last-30-days",
        "lat": 49.982540373845666,
        "lon": -174.56184033083707,
        "alt_km": 405.7135754811343,
        "timestamp": "2025-12-26T20:30:44.700957+00:00",
        "meta_object_name": "STARLINK-35768",
        "meta_object_id": "2025-280M",
        "meta_epoch": "2025-12-26T14:05:34.806624",
        "meta_mean_motion": 15.52554303,
        "meta_eccentricity": 0.00033084,
        "meta_inclination": 70.0006,
        "meta_ra_of_asc_node": 160.4621,
        "meta_arg_of_pericenter": 274.7821,
        "meta_mean_anomaly": 85.2989,
        "meta_ephemeris_type": 0,
        "meta_classification_type": "U",
        "meta_norad_cat_id": 66832,
        "meta_element_set_no": 999,
        "meta_rev_at_epoch": 508,
        "meta_bstar": 0.0015252521,
        "meta_mean_motion_dot": 0.00094915,
        "meta_mean_motion_ddot": 0,
        "tle_line1": "1 66832U 25280M   25360.58720841  .00094915  00000+0  15253-2 0  9998",
        "tle_line2": "2 66832  70.0006 160.4621 0003308 274.7821  85.2989 15.52554303  5082"
      },
      "geometry": {
        "type": "Point",
        "coordinates": [
          -174.56184033083707,
          49.982540373845666
        ]
      }
    },
    {
      "type": "Feature",
      "properties": {
        "norad_id": 66833,
        "name": "STARLINK-35858",
        "group": "last-30-days",
        "lat": 51.565591874173364,
        "lon": -172.95178353722866,
        "alt_km": 405.71363852017384,
        "timestamp": "2025-12-26T20:30:44.700967+00:00",
        "meta_object_name": "STARLINK-35858",
        "meta_object_id": "2025-280N",
        "meta_epoch": "2025-12-26T08:00:01.000224",
        "meta_mean_motion": 15.52414998,
        "meta_eccentricity": 0.00033627,
        "meta_inclination": 70.0002,
        "meta_ra_of_asc_node": 161.1546,
        "meta_arg_of_pericenter": 269.1139,
        "meta_mean_anomaly": 114.4876,
        "meta_ephemeris_type": 0,
        "meta_classification_type": "U",
        "meta_norad_cat_id": 66833,
        "meta_element_set_no": 999,
        "meta_rev_at_epoch": 508,
        "meta_bstar": 0.0029834745,
        "meta_mean_motion_dot": 0.00187064,
        "meta_mean_motion_ddot": 0,
        "tle_line1": "1 66833U 25280N   25360.33334491  .00187064  00000+0  29835-2 0  9993",
        "tle_line2": "2 66833  70.0002 161.1546 0003362 269.1139 114.4876 15.52414998  5088"
      },
      "geometry": {
        "type": "Point",
        "coordinates": [
          -172.95178353722866,
          51.565591874173364
        ]
      }
    },
    {
      "type": "Feature",
      "properties": {
        "norad_id": 66834,
        "name": "STARLINK-35840",
        "group": "last-30-days",
        "lat": 53.03037657599595,
        "lon": -171.33632506982372,
        "alt_km": 406.0130513294598,
        "timestamp": "2025-12-26T20:30:44.700976+00:00",
        "meta_object_name": "STARLINK-35840",
        "meta_object_id": "2025-280P",
        "meta_epoch": "2025-12-26T14:04:36.486624",
        "meta_mean_motion": 15.52456904,
        "meta_eccentricity": 0.00034355,
        "meta_inclination": 70.0007,
        "meta_ra_of_asc_node": 160.4595,
        "meta_arg_of_pericenter": 269.6434,
        "meta_mean_anomaly": 90.4359,
        "meta_ephemeris_type": 0,
        "meta_classification_type": "U",
        "meta_norad_cat_id": 66834,
        "meta_element_set_no": 999,
        "meta_rev_at_epoch": 508,
        "meta_bstar": -0.00021412151,
        "meta_mean_motion_dot": -0.00013289,
        "meta_mean_motion_ddot": 0,
        "tle_line1": "1 66834U 25280P   25360.58653341 -.00013289  00000+0 -21412-3 0  9992",
        "tle_line2": "2 66834  70.0007 160.4595 0003435 269.6434  90.4359 15.52456904  5086"
      },
      "geometry": {
        "type": "Point",
        "coordinates": [
          -171.33632506982372,
          53.03037657599595
        ]
      }
    }
  ]
}